#dP2020  8  4  0  0  0.00000000      96 __u+U ITR00 FIT  IAC
## 2117 172800.00000000   900.00000000 59065 0.0000000000000
+  113   C06C07C08C09C10C11C12C13C14C16C19C20C21C22C23C24C25
+        C26C27C28C29C30C32C33C34C35C36C37C39C43C44C45C46E01
+        E02E03E04E05E07E08E09E11E12E13E14E15E18E19E21E24E25
+        E26E27E30E31E33E36G01G02G03G04G05G06G07G08G09G10G11
+        G12G13G15G16G17G18G19G20G21G22G23G24G25G26G27G28G29
+        G30G31G32J01J02J03R01R02R03R04R05R07R08R09R11R12R13
+        R14R15R16R17R18R19R20R21R23R24R26  0  0  0  0  0  0
++         8  9  9  8  8  6  7  8  7  8  8  8  8  8  7  8  6
++         8  7  7  7  7  8  7  6  8  7  7  6  8 13  9  9  6
++         6  5  6  6  5  6  6  6  5  6  7  7  7  6  5  7  7
++         6  5  5  5  6  6  6  6  5  4  7  4  5  6  6  6  5
++         6  6  6  6  6  5  5  5  6  6  7  5  5  5  5  7  6
++         5  5  5  9  6  8  8  8  6  7  6  6  7  6  6  7  4
++         7  6  5  5  6  7  6  8  5  6  6  0  0  0  0  0  0
%c M  cc GPS ccc cccc cccc cccc cccc ccccc ccccc ccccc ccccc
%c cc cc ccc ccc cccc cccc cccc cccc ccccc ccccc ccccc ccccc
%f  0.0000000  0.000000000  0.00000000000  0.000000000000000
%f  0.0000000  0.000000000  0.00000000000  0.000000000000000
%i    0    0    0    0      0      0      0      0         0
%i    0    0    0    0      0      0      0      0         0
/* INFORMATION & ANALYSIS CENTER (IAC)      ULTRA-RAPID DATA
/* S/V CLOCKS ARE ALIGNED TO GNSS TIME                      
/* G:C1WC2W R:C1PC2P E:C1XC5X C:C2IC6I J:C1CC2S             
/* PCV:IGS14_2113 OL/AL:FES2004  NONE     YN ORB:CoN CLK:CoN
*  2020 08 04 18 30  0.00000000
PC06 -21157.554785  34923.075791   9923.721054    805.859909
PC07  -7668.030870  33203.863424  25368.832939    103.731303
PC08 -16136.950791  17989.236020 -34535.270553   -422.986039
PC09 -11313.535147  34286.881533  21702.882492    722.036921
PC10   3171.985525  39107.348505  16220.209678   -219.391783
PC11 -24206.482302  13047.148605   4978.542482   -534.595198
PC12 -19757.524585  -1718.526448  19673.116615    456.269857
PC13    -57.592137  23060.122454 -35205.439095    578.858924
PC14 -14330.901803   9501.870249 -21964.397008    770.721671
PC16 -19463.706700  35407.843535  11809.001072   -592.677494
PC19  10204.339717 -18955.494480  17770.106551    498.165323
PC20  16010.735896    405.748926  22869.790809   -836.234168
PC21 -12453.420177 -20292.012742 -14519.741729   -663.181199
PC22  -1630.049759 -27754.939060   2181.645482   -766.870124
PC23   4363.314237  18179.452880  20732.663728   -845.113095
PC24 -26008.115303  -4710.710752   8981.859580   -749.839535
PC25 -14763.208652  10256.756126  21349.474578   -709.935579
PC26 -22132.516858 -15212.265510  -7638.705529    780.196686
PC27  12845.952849  10084.069641 -22649.909789    376.063969
PC28  -5795.278206  19915.038845 -18676.097133   -186.709476
PC29  20240.448422 -18828.574155   3798.200545    265.392545
PC30  23580.645245  -6195.968831 -13597.802142    356.411328
PC32  12632.400169  20211.226516  14539.281693   -880.498344
PC33 -10139.149378  18991.375906 -17762.251649 999999.999999
PC34 -23711.376384   6538.741922  13154.827139   -885.596353
PC35   5304.230296 -20202.835238  18513.284532   -717.740187
PC36  15210.858144  -9729.124723 -21246.610686   -889.269492
PC37  21305.692094  16002.256158   8302.993427   -888.452312
PC39 -17650.271707  36610.615856  11009.615901 999999.999999
PC43 -20501.338560  18595.225711  -3491.620261 999999.999999
PC44 -13039.725822  -9922.429341  22577.226126 999999.999999
PC45  -4499.853791 -18059.144343 -20782.736886 999999.999999
PC46  25867.121461   4238.293205  -9520.618987    703.234612
PE01  18472.510744  -2072.285885 -23030.056707   -912.651273
PE02 -18420.181761   2178.720341  23074.060576    152.102643
PE03 -18678.280005  13493.668594 -18587.124904   -328.091072
PE04  11372.784683 -27215.838921   2458.885915   -579.746020
PE05 -15122.716363  -8347.097406 -24032.212278   -357.451136
PE07   2771.874482  25133.927262  15408.545097   -418.178322
PE08 -11039.609644  27384.080333  -2221.377987   6139.825871
PE09  -2919.436569 -25005.863153 -15545.809240   5974.468678
PE11  -7673.203702 -14861.202669  24407.721849   4566.202133
PE12  14986.585485 -16217.117878  19712.833627   5672.339046
PE13   7448.920909  14839.519732 -24505.962977    402.788950
PE14  -5609.747259 -15326.654042  16731.064001  -1108.441009
PE15 -14717.343705  16258.326196 -19880.939321    857.508613
PE18  10893.682204  18667.786389 -24446.886333  -1212.786994
PE19  18732.558175 -11330.559668  19929.233446     44.881537
PE21  22779.923774  15736.585350 -10474.616633   -613.940588
PE24 -13460.458648 -24876.546183  -8753.755878   5314.836737
PE25 -22764.755100 -15826.737684  10369.318506   -514.633021
PE26  25507.623268   4642.016554 -14278.462348   2881.077071
PE27  13848.132994  24761.018681   8455.265939    162.828841
PE30  -3712.095487  18909.494123  22464.561917   3692.386389
PE31   3156.076044 -19190.262939 -22299.519057   -473.494653
PE33  28239.615397  -8123.251515   3573.875441   -464.118363
PE36 -25237.265256  -4704.289472  14733.790770    525.126605
PG01  12760.143225  13786.243078 -19144.675941     31.557105
PG02  10705.192165 -14277.504077  20303.114404   -497.407637
PG03  12449.135581  23496.797703   1135.628963   -260.348163
PG04   6156.422156  15896.949881  20369.104844   -120.670583
PG05   1827.181203 -20837.694288  16106.186261    -18.112028
PG06  22600.741800  -6785.588300  12278.677738   -311.729323
PG07  25411.696952   6309.297602   6134.014276   -342.827034
PG08  -3064.816015  22310.074192 -13863.650833    -43.340564
PG09  15121.828938   4504.039471  21316.494344   -265.046413
PG10 -16061.399731    402.955784 -21104.314494   -418.680325
PG11   2437.839362  16667.482386 -21061.965558   -201.923890
PG12 -10268.197380 -24578.343874    312.267558     84.858216
PG13  11885.352174 -22265.058431  -8222.337272     32.836871
PG15   -357.060586 -22407.240960 -14289.477003   -212.860180
PG16  -1471.006189  22212.251741  13926.709490   -191.455925
PG17  19672.294787 -11773.580030 -12950.588868    306.179902
PG18 -25352.051845  -5958.676996   5304.741504    262.520069
PG19  19710.719166 -16436.614078  -7029.542381   -122.855201
PG20 -19889.898821 -10316.812900 -14517.323508    527.132304
PG21 -20915.053237   9051.117626 -12665.735533     31.829046
PG22   9074.312538  24142.954032  -6457.515461   -766.873589
PG23 -18233.608538  -9334.605160 -16938.628630     28.846764
PG24 -10604.495865 -14613.355534 -19791.242942    -16.675550
PG25 -16572.690161 -18389.371476   9734.767896     31.340538
PG26 -10671.100933  12139.370332  21009.265730    255.548535
PG27 -11818.672283  23183.816551  -4469.913500   -363.024381
PG28  14964.297004  -1165.316920 -21317.988016    692.857684
PG29 -11585.001755  -8973.262572  22109.119534   -165.496142
PG30  26256.411701   -821.149294  -4597.252257   -275.767881
PG31 -21861.808238   7500.286447  13436.557562    -60.047400
PG32 -19232.636854  13002.757005 -12679.435539    327.747174
PJ01 -20270.307400  29834.346084 -17272.178629   -192.669145
PJ02 -26567.202210  20274.407303  30579.201999     -1.983751
PJ03 -34305.778503  24583.990595   2950.825234     -0.310016
PR01  11103.483808  -5075.198622  22396.701798     65.547715
PR02   6057.953039 -23192.453021   8844.292733    439.455579
PR03  -2302.469445 -23909.240050  -8615.868266     19.783847
PR04  -9095.486797 -11010.299210 -21109.463601     58.711534
PR05 -10807.174584   8003.644436 -21659.544983     55.261046
PR07   2633.122196  23594.909815   9311.166847    -39.016087
PR08   9237.891437  10981.392961  21138.821249    -53.863576
PR09    448.523840  13217.753374  21844.349647    147.155565
PR11  21868.889599  12715.757894  -3472.190097    -32.921185
PR12  17924.748777   1822.620509 -18017.160051    152.764145
PR13   3630.160522 -10667.999221 -22892.946174    -42.059737
PR14 -12870.007408 -16920.180278 -14064.463448     54.097591
PR15 -21643.986517 -13228.150074   2689.765310    106.961108
PR16 -17735.288745   -912.632127  18348.319258     -5.042687
PR17   -363.494981 -11356.355414  22834.361285    346.928064
PR18 -16147.083332  -2159.461629  19617.890195     44.684608
PR19 -23586.041069   7350.423485   6364.342428   -105.364691
PR20 -16971.300058  13842.289097 -13045.439448   -418.467834
PR21   1262.096576  10911.932049 -23030.511427   -142.816467
PR23  22952.658349 -11094.575886    781.433104    323.128823
PR24  16210.829085 -14299.012988  13537.424886      8.616146
PR26 -19983.069539  13490.056611  -8370.462959   -363.380584
EOF
